GOES 16                 
1 41866U 16071A   26197.10657830 -.00000102  00000+0  00000+0 0  9997
2 41866   0.4063  85.4600 0000546  92.1970  49.9576  1.00271058 35390
TIANLIAN 1-04           
1 41869U 16072A   26197.16233119  .00000019  00000+0  00000+0 0  9993
2 41869   0.9405  82.7160 0044141  90.6394 355.8538  1.00271320 35592
WGS F8 (USA 272)        
1 41879U 16075A   26196.60739123 -.00000213  00000+0  00000+0 0  9998
2 41879   0.0170  47.4138 0000200 315.6362 298.8780  1.00269770 35107
FENGYUN 4A              
1 41882U 16077A   26197.22309391 -.00000369  00000+0  00000+0 0  9995
2 41882   2.3940  79.9442 0008496 159.5733 258.5863  1.00267567 35221
ECHOSTAR 19             
1 41893U 16079A   26195.82501098 -.00000147  00000+0  00000+0 0  9995
2 41893   0.0166  50.3681 0001248  71.5406  10.6711  1.00271542 34983
JCSAT-110A (JCSAT-15)   
1 41903U 16082A   26197.09281006 -.00000361  00000+0  00000+0 0  9994
2 41903   0.0177  40.1558 0000440  85.9421 311.3080  1.00270344 35043
STAR ONE D1             
1 41904U 16082B   26197.11073832 -.00000221  00000+0  00000+0 0  9999
2 41904   0.0109 309.2683 0002272 165.7140 134.8402  1.00270935 35061
TJS-2                   
1 41911U 17001A   26197.14049109 -.00000017  00000+0  00000+0 0  9995
2 41911   0.9061  84.9327 0000801 106.3840 219.7660  1.00270818 35004
SBIRS GEO-4 (USA 273)   
1 41937U 17004A   26197.13165103  .00000116  00000+0  00000+0 0  9997
2 41937   2.2980  44.0111 0002596  67.5992 251.4353  1.00280664 34881
HISPASAT 36W-1          
1 41942U 17006A   26197.09558764 -.00000255  00000+0  00000+0 0  9994
2 41942   0.0055 268.9051 0001160 205.7989 177.6316  1.00270846 34535
TELKOM 3S               
1 41944U 17007A   26195.22588949 -.00000369  00000+0  00000+0 0  9994
2 41944   0.0183  79.6116 0001973  31.8917  19.9065  1.00270767 34417
INTELSAT 32E (IS-32E)   
1 41945U 17007B   26196.69096175  .00000000  00000+0  00000+0 0  9993
2 41945   0.0237  56.8760 0000270 287.4334 154.7925  1.00266215 34518
ECHOSTAR 23             
1 42070U 17014A   26196.89176816 -.00000067  00000+0  00000+0 0  9998
2 42070   0.0186  40.1406 0002129  68.8313  35.8896  1.00270738 34215
WGS F9 (USA 275)        
1 42075U 17016A   26196.62599412  .00000000  00000+0  00000+0 0  9993
2 42075   0.0237  45.0052 0000503 197.3265 264.5358  1.00270580 34181
SES-10                  
1 42432U 17017A   26197.11760774 -.00000283  00000+0  00000+0 0  9991
2 42432   0.0202  51.7989 0002539  67.0290 150.5574  1.00273157 34047
CHINASAT 16 (SJ-13)     
1 42662U 17018A   26197.07791604 -.00000362  00000+0  00000+0 0  9996
2 42662   0.0882  88.3030 0005044 136.5277 207.6336  1.00266869 34031
KOREASAT 7              
1 42691U 17023A   26197.07058691 -.00000372  00000+0  00000+0 0  9997
2 42691   0.0224 339.2345 0000755 141.9121 314.0532  1.00269336 33652
SGDC                    
1 42692U 17023B   26196.39338316 -.00000259  00000+0  00000+0 0  9991
2 42692   0.0245 305.9478 0002251 175.2512 238.8037  1.00270381 33699
GSAT-9                  
1 42695U 17024A   26197.10580823 -.00000296  00000+0  00000+0 0  9998
2 42695   0.0879  91.1019 0002320  34.8636 303.3115  1.00267215 33589
INMARSAT 5-F4           
1 42698U 17025A   26195.07125353  .00000069  00000+0  00000+0 0  9996
2 42698   0.0033 109.2613 0000436  82.2635 182.5773  1.00272708 33543
SES-15                  
1 42709U 17026A   26197.15316205  .00000049  00000+0  00000+0 0  9997
2 42709   0.0281 325.1437 0000318 137.2526 117.5738  1.00268318  7725
QZS-2 (MICHIBIKI-2)     
1 42738U 17028A   26196.44435829 -.00000133  00000+0  00000+0 0  9991
2 42738  39.3862 242.7372 0757500 269.6033  83.3491  1.00276676  7917
VIASAT-2                
1 42740U 17029A   26196.82839596 -.00000275  00000+0  00000+0 0  9993
2 42740   0.0170 316.2239 0000421 237.9512 327.8198  1.00268622 33493
EUTELSAT 172B           
1 42741U 17029B   26197.09004942 -.00000017  00000+0  00000+0 0  9997
2 42741   0.0249 124.6708 0000132 182.9812 190.6802  1.00270086 34030
GSAT-19                 
1 42747U 17031A   26196.13880795  .00000116  00000+0  00000+0 0  9997
2 42747   0.0389  88.1289 0006230   1.6920 301.0162  1.00269759 33425
ECHOSTAR 21             
1 42749U 17032A   26197.07336494  .00000056  00000+0  00000+0 0  9999
2 42749   1.7705 357.5714 0002176 106.1952 226.8127  1.00269660 33385
BULGARIASAT-1           
1 42801U 17038A   26197.12775102  .00000000  00000+0  00000+0 0  9992
2 42801   0.0024 358.6525 0003052 121.3176 221.8737  1.00271491 33133
HELLAS-SAT 3            
1 42814U 17040A   26197.13503105  .00000142  00000+0  00000+0 0  9999
2 42814   0.0521  50.6627 0003206  26.2790 304.6239  1.00271826 33091
GSAT-17                 
1 42815U 17040B   26197.10580823 -.00000268  00000+0  00000+0 0  9999
2 42815   0.0747  88.4297 0002226 166.5710 170.5176  1.00270277 33072
INTELSAT 35E (IS-35E)   
1 42818U 17041A   26196.55183711  .00000000  00000+0  00000+0 0  9999
2 42818   0.0261  63.1048 0001683  46.6502 347.7991  1.00266637 33105
COSMOS 2520             
1 42907U 17046A   26194.92639485  .00000132  00000+0  00000+0 0  9992
2 42907   0.0371 107.3958 0001015 352.7379 210.1305  1.00269251 32666
TDRS 13                 
1 42915U 17047A   26197.08447480 -.00000110  00000+0  00000+0 0  9991
2 42915   3.4597   3.4414 0014784 111.3853 198.1011  1.00271711 32638
