OBJECT_NAME,OBJECT_ID,EPOCH,MEAN_MOTION,ECCENTRICITY,INCLINATION,RA_OF_ASC_NODE,ARG_OF_PERICENTER,MEAN_ANOMALY,EPHEMERIS_TYPE,CLASSIFICATION_TYPE,NORAD_CAT_ID,ELEMENT_SET_NO,REV_AT_EPOCH,BSTAR,MEAN_MOTION_DOT,MEAN_MOTION_DDOT
GOES 16,2016-071A,2026-07-16T02:33:28.365120,1.00271058,.0000546,0.4063,85.4600,92.1970,49.9576,0,U,41866,999,3539,0,-.102E-5,0
TIANLIAN 1-04,2016-072A,2026-07-16T03:53:45.414816,1.00271320,.0044141,0.9405,82.7160,90.6394,355.8538,0,U,41869,999,3559,0,.19E-6,0
WGS F8 (USA 272),2016-075A,2026-07-15T14:34:38.602272,1.00269770,.00002,0.0170,47.4138,315.6362,298.8780,0,U,41879,999,3510,0,-.213E-5,0
FENGYUN 4A,2016-077A,2026-07-16T05:21:15.313824,1.00267567,.0008496,2.3940,79.9442,159.5733,258.5863,0,U,41882,999,3522,0,-.369E-5,0
ECHOSTAR 19,2016-079A,2026-07-14T19:48:00.948672,1.00271542,.00012489,0.0166,50.3681,71.5406,10.6711,0,U,41893,999,3498,0,-.147E-5,0
JCSAT-110A (JCSAT-15),2016-082A,2026-07-16T02:13:38.789184,1.00270344,.000044,0.0177,40.1558,85.9421,311.3080,0,U,41903,999,3504,0,-.361E-5,0
STAR ONE D1,2016-082B,2026-07-16T02:39:27.790848,1.00270935,.0002272,0.0109,309.2683,165.7140,134.8402,0,U,41904,999,3506,0,-.221E-5,0
TJS-2,2017-001A,2026-07-16T03:22:18.430176,1.00270818,.0000801,0.9061,84.9327,106.3840,219.7660,0,U,41911,999,3500,0,-.17E-6,0
SBIRS GEO-4 (USA 273),2017-004A,2026-07-16T03:09:34.648992,1.00280664,.0002596,2.2980,44.0111,67.5992,251.4353,0,U,41937,999,3488,0,.116E-5,0
HISPASAT 36W-1,2017-006A,2026-07-16T02:17:38.772096,1.00270846,.000116,0.0055,268.9051,205.7989,177.6316,0,U,41942,999,3453,0,-.255E-5,0
TELKOM 3S,2017-007A,2026-07-14T05:25:16.851936,1.00270767,.00019737,0.0183,79.6116,31.8917,19.9065,0,U,41944,999,3441,0,-.369E-5,0
INTELSAT 32E (IS-32E),2017-007B,2026-07-15T16:34:59.095200,1.00266215,.00002708,0.0237,56.8760,287.4334,154.7925,0,U,41945,999,3451,0,0,0
ECHOSTAR 23,2017-014A,2026-07-15T21:24:08.769024,1.00270738,.0002129,0.0186,40.1406,68.8313,35.8896,0,U,42070,999,3421,0,-.67E-6,0
WGS F9 (USA 275),2017-016A,2026-07-15T15:01:25.891968,1.00270580,.00005033,0.0237,45.0052,197.3265,264.5358,0,U,42075,999,3418,0,0,0
SES-10,2017-017A,2026-07-16T02:49:21.308736,1.00273157,.0002539,0.0202,51.7989,67.0290,150.5574,0,U,42432,999,3404,0,-.283E-5,0
CHINASAT 16 (SJ-13),2017-018A,2026-07-16T01:52:11.945856,1.00266869,.0005044,0.0882,88.3030,136.5277,207.6336,0,U,42662,999,3403,0,-.362E-5,0
KOREASAT 7,2017-023A,2026-07-16T01:41:38.709024,1.00269336,.0000755,0.0224,339.2345,141.9121,314.0532,0,U,42691,999,3365,0,-.372E-5,0
SGDC,2017-023B,2026-07-15T09:26:28.305024,1.00270381,.0002251,0.0245,305.9478,175.2512,238.8037,0,U,42692,999,3369,0,-.259E-5,0
GSAT-9,2017-024A,2026-07-16T02:32:21.831072,1.00267215,.000232,0.0879,91.1019,34.8636,303.3115,0,U,42695,999,3358,0,-.296E-5,0
INMARSAT 5-F4,2017-025A,2026-07-14T01:42:36.304992,1.00272708,.00004367,0.0033,109.2613,82.2635,182.5773,0,U,42698,999,3354,0,.69E-6,0
SES-15,2017-026A,2026-07-16T03:40:33.201120,1.00268318,.0000318,0.0281,325.1437,137.2526,117.5738,0,U,42709,999,772,0,.49E-6,0
QZS-2 (MICHIBIKI-2),2017-028A,2026-07-15T10:39:52.556256,1.00276676,.07575002,39.3862,242.7372,269.6033,83.3491,0,U,42738,999,791,0,-.133E-5,0
VIASAT-2,2017-029A,2026-07-15T19:52:53.410944,1.00268622,.0000421,0.0170,316.2239,237.9512,327.8198,0,U,42740,999,3349,0,-.275E-5,0
EUTELSAT 172B,2017-029B,2026-07-16T02:09:40.269888,1.00270086,.0000132,0.0249,124.6708,182.9812,190.6802,0,U,42741,999,3403,0,-.17E-6,0
GSAT-19,2017-031A,2026-07-15T03:19:53.006880,1.00269759,.00062304,0.0389,88.1289,1.6920,301.0162,0,U,42747,999,3342,0,.116E-5,0
ECHOSTAR 21,2017-032A,2026-07-16T01:45:38.730816,1.00269660,.0002176,1.7705,357.5714,106.1952,226.8127,0,U,42749,999,3338,0,.56E-6,0
BULGARIASAT-1,2017-038A,2026-07-16T03:03:57.688128,1.00271491,.0003052,0.0024,358.6525,121.3176,221.8737,0,U,42801,999,3313,0,0,0
HELLAS-SAT 3,2017-040A,2026-07-16T03:14:26.682720,1.00271826,.0003206,0.0521,50.6627,26.2790,304.6239,0,U,42814,999,3309,0,.142E-5,0
GSAT-17,2017-040B,2026-07-16T02:32:21.831072,1.00270277,.0002226,0.0747,88.4297,166.5710,170.5176,0,U,42815,999,3307,0,-.268E-5,0
INTELSAT 35E (IS-35E),2017-041A,2026-07-15T13:14:38.726304,1.00266637,.0001683,0.0261,63.1048,46.6502,347.7991,0,U,42818,999,3310,0,0,0
COSMOS 2520,2017-046A,2026-07-13T22:14:00.515040,1.00269251,.00010153,0.0371,107.3958,352.7379,210.1305,0,U,42907,999,3266,0,.132E-5,0
TDRS 13,2017-047A,2026-07-16T02:01:38.622720,1.00271711,.0014784,3.4597,3.4414,111.3853,198.1011,0,U,42915,999,3263,0,-.11E-5,0
